{
  "updatedAt": "2026-03-20T16:26:01.420Z",
  "entries": {
    "kplo-53365": {
      "fetchedAt": "2026-03-20T16:26:01.420Z",
      "fleetEntry": {
        "id": "kplo-53365",
        "name": "KPLO",
        "englishName": "KPLO",
        "domesticName": "KPLO",
        "color": "#f79d65",
        "norad": "53365",
        "orbitClass": "cislunar",
        "orbitLabel": "Lunar orbit",
        "missionType": "science",
        "missionLabel": "심우주 탐사",
        "operationalStatus": "비현역",
        "objectId": "2022-094A",
        "launchDate": "2022-08-04",
        "sourceDate": "2022-08-04",
        "sourceLabel": "Space-Track cached GP",
        "omm": {
          "CCSDS_OMM_VERS": "3.0",
          "COMMENT": "GENERATED VIA SPACE-TRACK.ORG API",
          "CREATION_DATE": "2022-08-05T17:24:20",
          "ORIGINATOR": "18 SPCS",
          "OBJECT_NAME": "KPLO",
          "OBJECT_ID": "2022-094A",
          "CENTER_NAME": "EARTH",
          "REF_FRAME": "TEME",
          "TIME_SYSTEM": "UTC",
          "MEAN_ELEMENT_THEORY": "SGP4",
          "EPOCH": "2022-08-04T23:16:44.399712",
          "MEAN_MOTION": 16.09976711,
          "ECCENTRICITY": 0.00033,
          "INCLINATION": 29.5,
          "RA_OF_ASC_NODE": 147.2458,
          "ARG_OF_PERICENTER": 140.47,
          "MEAN_ANOMALY": 307.52,
          "EPHEMERIS_TYPE": 0,
          "CLASSIFICATION_TYPE": "U",
          "NORAD_CAT_ID": 53365,
          "ELEMENT_SET_NO": 999,
          "REV_AT_EPOCH": 0,
          "BSTAR": 0,
          "MEAN_MOTION_DOT": 0.00001843,
          "MEAN_MOTION_DDOT": -0.0000058274,
          "SEMIMAJOR_AXIS": "6625.044",
          "PERIOD": "89.442",
          "APOAPSIS": "249.095",
          "PERIAPSIS": "244.723",
          "OBJECT_TYPE": "PAYLOAD",
          "RCS_SIZE": null,
          "COUNTRY_CODE": null,
          "LAUNCH_DATE": null,
          "SITE": null,
          "DECAY_DATE": null,
          "FILE": "3529733",
          "GP_ID": "209628331",
          "TLE_LINE0": "0 KPLO",
          "TLE_LINE1": "1 53365U 22094A   22216.96995833  .00001843 -58274-5  00000-0 0  9992",
          "TLE_LINE2": "2 53365  29.5000 147.2458 0003300 140.4700 307.5200 16.09976711    07"
        }
      }
    },
    "nextsat-2-56743": {
      "fetchedAt": "2026-03-20T16:26:01.420Z",
      "fleetEntry": {
        "id": "nextsat-2-56743",
        "name": "NEXTSAT-2",
        "englishName": "NEXTSAT-2",
        "domesticName": "NEXTSAT-2",
        "color": "#79c6a5",
        "norad": "56743",
        "orbitClass": "leo",
        "orbitLabel": "LEO SSO",
        "missionType": "technology",
        "missionLabel": "기술실증/학술",
        "operationalStatus": "비현역",
        "objectId": "2023-072A",
        "launchDate": "2023-05-25",
        "sourceDate": "2026-03-20",
        "sourceLabel": "Space-Track cached GP",
        "omm": {
          "CCSDS_OMM_VERS": "3.0",
          "COMMENT": "GENERATED VIA SPACE-TRACK.ORG API",
          "CREATION_DATE": "2026-03-20T14:36:41",
          "ORIGINATOR": "18 SPCS",
          "OBJECT_NAME": "NEXTSAT-2",
          "OBJECT_ID": "2023-072A",
          "CENTER_NAME": "EARTH",
          "REF_FRAME": "TEME",
          "TIME_SYSTEM": "UTC",
          "MEAN_ELEMENT_THEORY": "SGP4",
          "EPOCH": "2026-03-20T12:28:26.287680",
          "MEAN_MOTION": 15.26558148,
          "ECCENTRICITY": 0.000531,
          "INCLINATION": 97.5295,
          "RA_OF_ASC_NODE": 275.741,
          "ARG_OF_PERICENTER": 346.1692,
          "MEAN_ANOMALY": 13.94,
          "EPHEMERIS_TYPE": 0,
          "CLASSIFICATION_TYPE": "U",
          "NORAD_CAT_ID": 56743,
          "ELEMENT_SET_NO": 999,
          "REV_AT_EPOCH": 15606,
          "BSTAR": 0.00022335,
          "MEAN_MOTION_DOT": 0.00005766,
          "MEAN_MOTION_DDOT": 0,
          "SEMIMAJOR_AXIS": "6864.248",
          "PERIOD": "94.330",
          "APOAPSIS": "489.758",
          "PERIAPSIS": "482.468",
          "OBJECT_TYPE": "PAYLOAD",
          "RCS_SIZE": "MEDIUM",
          "COUNTRY_CODE": "SKOR",
          "LAUNCH_DATE": "2023-05-25",
          "SITE": "NSC",
          "DECAY_DATE": null,
          "FILE": "5093577",
          "GP_ID": "316575143",
          "TLE_LINE0": "0 NEXTSAT-2",
          "TLE_LINE1": "1 56743U 23072A   26079.51974870  .00005766  00000-0  22335-3 0  9996",
          "TLE_LINE2": "2 56743  97.5295 275.7410 0005310 346.1692  13.9400 15.26558148156060"
        }
      }
    },
    "observer-1a-58323": {
      "fetchedAt": "2026-03-20T16:26:01.420Z",
      "fleetEntry": {
        "id": "observer-1a-58323",
        "name": "OBSERVER-1A",
        "englishName": "OBSERVER-1A",
        "domesticName": "OBSERVER-1A",
        "color": "#7bdff2",
        "norad": "58323",
        "orbitClass": "leo",
        "orbitLabel": "LEO SSO",
        "missionType": "earth-observation",
        "missionLabel": "지구관측",
        "operationalStatus": "비현역",
        "objectId": "2023-174BV",
        "launchDate": "2023-11-11",
        "sourceDate": "2026-03-20",
        "sourceLabel": "Space-Track cached GP",
        "omm": {
          "CCSDS_OMM_VERS": "3.0",
          "COMMENT": "GENERATED VIA SPACE-TRACK.ORG API",
          "CREATION_DATE": "2026-03-20T14:36:41",
          "ORIGINATOR": "18 SPCS",
          "OBJECT_NAME": "OBSERVER-1A",
          "OBJECT_ID": "2023-174BV",
          "CENTER_NAME": "EARTH",
          "REF_FRAME": "TEME",
          "TIME_SYSTEM": "UTC",
          "MEAN_ELEMENT_THEORY": "SGP4",
          "EPOCH": "2026-03-20T12:35:51.863712",
          "MEAN_MOTION": 15.36458467,
          "ECCENTRICITY": 0.000989,
          "INCLINATION": 97.3968,
          "RA_OF_ASC_NODE": 162.6846,
          "ARG_OF_PERICENTER": 112.9717,
          "MEAN_ANOMALY": 247.2571,
          "EPHEMERIS_TYPE": 0,
          "CLASSIFICATION_TYPE": "U",
          "NORAD_CAT_ID": 58323,
          "ELEMENT_SET_NO": 999,
          "REV_AT_EPOCH": 13158,
          "BSTAR": 0.00026372,
          "MEAN_MOTION_DOT": 0.00009314,
          "MEAN_MOTION_DDOT": 0,
          "SEMIMAJOR_AXIS": "6834.729",
          "PERIOD": "93.722",
          "APOAPSIS": "463.353",
          "PERIAPSIS": "449.834",
          "OBJECT_TYPE": "PAYLOAD",
          "RCS_SIZE": "MEDIUM",
          "COUNTRY_CODE": "SKOR",
          "LAUNCH_DATE": "2023-11-11",
          "SITE": "AFWTR",
          "DECAY_DATE": null,
          "FILE": "5093604",
          "GP_ID": "316576360",
          "TLE_LINE0": "0 OBSERVER-1A",
          "TLE_LINE1": "1 58323U 23174BV  26079.52490583  .00009314  00000-0  26372-3 0  9998",
          "TLE_LINE2": "2 58323  97.3968 162.6846 0009890 112.9717 247.2571 15.36458467131587"
        }
      }
    },
    "korsat-7-58463": {
      "fetchedAt": "2026-03-20T16:26:01.420Z",
      "fleetEntry": {
        "id": "korsat-7-58463",
        "name": "KORSAT 7",
        "englishName": "KORSAT 7",
        "domesticName": "KORSAT 7",
        "color": "#f6bd60",
        "norad": "58463",
        "orbitClass": "leo",
        "orbitLabel": "LEO SSO",
        "missionType": "earth-observation",
        "missionLabel": "지구관측",
        "operationalStatus": "비현역",
        "objectId": "2023-185B",
        "launchDate": "2023-12-01",
        "sourceDate": "2026-03-20",
        "sourceLabel": "Space-Track cached GP",
        "omm": {
          "CCSDS_OMM_VERS": "3.0",
          "COMMENT": "GENERATED VIA SPACE-TRACK.ORG API",
          "CREATION_DATE": "2026-03-20T14:46:35",
          "ORIGINATOR": "18 SPCS",
          "OBJECT_NAME": "KORSAT 7",
          "OBJECT_ID": "2023-185B",
          "CENTER_NAME": "EARTH",
          "REF_FRAME": "TEME",
          "TIME_SYSTEM": "UTC",
          "MEAN_ELEMENT_THEORY": "SGP4",
          "EPOCH": "2026-03-20T12:33:01.567584",
          "MEAN_MOTION": 15.00949407,
          "ECCENTRICITY": 0.0021462,
          "INCLINATION": 97.6243,
          "RA_OF_ASC_NODE": 145.4262,
          "ARG_OF_PERICENTER": 270.6267,
          "MEAN_ANOMALY": 89.2498,
          "EPHEMERIS_TYPE": 0,
          "CLASSIFICATION_TYPE": "U",
          "NORAD_CAT_ID": 58463,
          "ELEMENT_SET_NO": 999,
          "REV_AT_EPOCH": 12598,
          "BSTAR": 0.00016295,
          "MEAN_MOTION_DOT": 0.00002026,
          "MEAN_MOTION_DDOT": 0,
          "SEMIMAJOR_AXIS": "6942.104",
          "PERIOD": "95.939",
          "APOAPSIS": "578.869",
          "PERIAPSIS": "549.070",
          "OBJECT_TYPE": "PAYLOAD",
          "RCS_SIZE": "LARGE",
          "COUNTRY_CODE": "SKOR",
          "LAUNCH_DATE": "2023-12-01",
          "SITE": "AFWTR",
          "DECAY_DATE": null,
          "FILE": "5093701",
          "GP_ID": "316578455",
          "TLE_LINE0": "0 KORSAT 7",
          "TLE_LINE1": "1 58463U 23185B   26079.52293481  .00002026  00000-0  16295-3 0  9999",
          "TLE_LINE2": "2 58463  97.6243 145.4262 0021462 270.6267  89.2498 15.00949407125982"
        }
      }
    }
  }
}